STARLINK-31543          
1 59402U 24064E   26068.03722428  .00000910  00000+0  42599-4 0  9998
2 59402  43.0067  60.0603 0001701 288.2174  71.8492 15.27577357109121
BLUEBON                 
1 62688U 25009CH  26068.70316231  .00010452  00000+0  37313-3 0  9992
2 62688  97.4017 152.2033 0001193  43.3900 316.7434 15.29047253 63767
