[{"OBJECT_NAME":"STARLINK-31543","OBJECT_ID":"2024-064E","EPOCH":"2026-03-09T00:53:36.177792","MEAN_MOTION":15.27577357,"ECCENTRICITY":0.00017019,"INCLINATION":43.0067,"RA_OF_ASC_NODE":60.0603,"ARG_OF_PERICENTER":288.2174,"MEAN_ANOMALY":71.8492,"EPHEMERIS_TYPE":0,"CLASSIFICATION_TYPE":"U","NORAD_CAT_ID":59402,"ELEMENT_SET_NO":999,"REV_AT_EPOCH":10912,"BSTAR":4.2599463e-5,"MEAN_MOTION_DOT":9.1e-6,"MEAN_MOTION_DDOT":0},{"OBJECT_NAME":"BLUEBON","OBJECT_ID":"2025-009CH","EPOCH":"2026-03-09T16:52:33.225312","MEAN_MOTION":15.29047254,"ECCENTRICITY":0.00011933,"INCLINATION":97.4017,"RA_OF_ASC_NODE":152.2033,"ARG_OF_PERICENTER":43.39,"MEAN_ANOMALY":316.7434,"EPHEMERIS_TYPE":0,"CLASSIFICATION_TYPE":"U","NORAD_CAT_ID":62688,"ELEMENT_SET_NO":999,"REV_AT_EPOCH":6376,"BSTAR":0.00037313027,"MEAN_MOTION_DOT":0.00010452,"MEAN_MOTION_DDOT":0}]
